IRIDIUM 63              
1 25286U 98021B   25296.55035555  .00000707  00000+0  23342-3 0  9990
2 25286  86.4027  28.2607 0001985  98.8499 261.2923 14.36672961442276
IRIDIUM 69              
1 25319U 98026A   25296.58500779  .00001004  00000+0  30577-3 0  9999
2 25319  86.4003  41.1276 0001770  18.4130 341.7134 14.41127331441555
IRIDIUM 71              
1 25320U 98026B   25296.64540388  .00000528  00000+0  15735-3 0  9997
2 25320  86.4009  35.7790 0003478  58.2913 301.8625 14.41270076442098
IRIDIUM 73              
1 25344U 98032C   25296.60681086  .00000857  00000+0  20772-3 0  9999
2 25344  86.4450 352.2913 0001572  89.9470 270.1916 14.51894820449199
IRIDIUM 82              
1 25467U 98051A   25296.35095512  .00068386  00000+0  15062-2 0  9997
2 25467  86.3651  46.3507 0070794 167.4955 192.8078 15.41003111443625
